     2              NAVIGATION DATA                         RINEX VERSION / TYPE
CCRINEXN V1.6.0 UX  CDDIS               22-JAN-16 15:33     PGM / RUN BY / DATE 
IGS BROADCAST EPHEMERIS FILE                                COMMENT             
    0.1118D-07 -0.7451D-08 -0.5960D-07  0.1192D-06          ION ALPHA           
    0.1147D+06 -0.1638D+06 -0.1966D+06  0.9175D+06          ION BETA            
   -0.186264514923D-08-0.888178419700D-14   589824     1880 DELTA-UTC: A0,A1,T,W
    17                                                      LEAP SECONDS        
                                                            END OF HEADER       
15 16  1 21 16  0  0.0-0.293349381536D-03-0.181898940355D-11 0.000000000000D+00
    0.720000000000D+02-0.251562500000D+02 0.540986819987D-08 0.845398117265D+00
   -0.998377799988D-06 0.801993976347D-02 0.844895839691D-05 0.515378103638D+04
    0.403200000000D+06-0.707805156708D-07 0.212756747740D+01 0.121071934700D-06
    0.931255955714D+00 0.199312500000D+03 0.473773773437D+00-0.841070748258D-08
   -0.707886629177D-09 0.100000000000D+01 0.188000000000D+04 0.000000000000D+00
    0.200000000000D+01 0.000000000000D+00-0.107102096081D-07 0.720000000000D+02
    0.396018000000D+06 0.400000000000D+01 0.000000000000D+00 0.000000000000D+00
16 16  1 21 16  0  0.0-0.464380718768D-04 0.329691829393D-11 0.000000000000D+00
    0.330000000000D+02 0.235937500000D+02 0.406981238116D-08 0.268105683902D+01
    0.121816992760D-05 0.842841970734D-02 0.110082328320D-05 0.515369236374D+04
    0.403200000000D+06-0.128522515297D-06-0.193691606538D+01-0.109896063805D-06
    0.990617098607D+00 0.376375000000D+03 0.316486383568D+00-0.812605276843D-08
    0.903609067516D-10 0.100000000000D+01 0.188000000000D+04 0.000000000000D+00
    0.200000000000D+01 0.000000000000D+00-0.102445483208D-07 0.330000000000D+02
    0.396018000000D+06 0.400000000000D+01 0.000000000000D+00 0.000000000000D+00
17 16  1 21 16  0  0.0-0.199218280613D-03-0.795807864051D-12 0.000000000000D+00
    0.150000000000D+02-0.149718750000D+03 0.398159442082D-08 0.170512931632D+01
   -0.774487853050D-05 0.109433741309D-01 0.681355595589D-05 0.515363662147D+04
    0.403200000000D+06-0.152736902237D-06-0.913162995990D+00-0.227242708206D-06
    0.975047160548D+00 0.256593750000D+03-0.196193391022D+01-0.799104714490D-08
   -0.186436337250D-09 0.000000000000D+00 0.188000000000D+04 0.000000000000D+00
    0.200000000000D+01 0.000000000000D+00-0.107102096081D-07 0.150000000000D+02
    0.396000000000D+06 0.400000000000D+01 0.000000000000D+00 0.000000000000D+00
18 16  1 21 16  0  0.0 0.475351698697D-03 0.386535248253D-11 0.000000000000D+00
    0.460000000000D+02 0.115000000000D+02 0.578774108265D-08-0.302533797267D+01
    0.545755028725D-06 0.165354363853D-01 0.482983887196D-05 0.515364932060D+04
    0.403200000000D+06 0.296160578728D-06 0.110732410209D+01-0.201165676117D-06
    0.924684537943D+00 0.264218750000D+03-0.191766040470D+01-0.841499337539D-08
    0.228223792151D-09 0.100000000000D+01 0.188000000000D+04 0.000000000000D+00
    0.200000000000D+01 0.000000000000D+00-0.111758708954D-07 0.460000000000D+02
    0.396018000000D+06 0.400000000000D+01 0.000000000000D+00 0.000000000000D+00
19 16  1 21 16  0  0.0-0.524532981217D-03-0.113686837722D-12 0.000000000000D+00
    0.880000000000D+02-0.137187500000D+03 0.410017078857D-08-0.101872207656D+01
   -0.687874853611D-05 0.112833215389D-01 0.705011188984D-05 0.515519772339D+04
    0.403200000000D+06 0.262632966042D-06-0.864086920597D+00 0.782310962677D-07
    0.972161346902D+00 0.242468750000D+03 0.672862037370D+00-0.798568977889D-08
   -0.135362781260D-09 0.000000000000D+00 0.188000000000D+04 0.000000000000D+00
    0.200000000000D+01 0.000000000000D+00-0.153668224812D-07 0.880000000000D+02
    0.397470000000D+06 0.400000000000D+01 0.000000000000D+00 0.000000000000D+00
20 16  1 21 16  0  0.0 0.387294683605D-03 0.272848410532D-11 0.000000000000D+00
    0.270000000000D+02 0.148750000000D+02 0.587845914713D-08 0.961975548634D+00
    0.828877091408D-06 0.495742307976D-02 0.545568764210D-05 0.515367688751D+04
    0.403200000000D+06-0.100582838059D-06 0.105531176579D+01 0.521540641785D-07
    0.925964420100D+00 0.258875000000D+03 0.131918867769D+01-0.873107797016D-08
    0.271439877989D-09 0.100000000000D+01 0.188000000000D+04 0.000000000000D+00
    0.200000000000D+01 0.000000000000D+00-0.838190317154D-08 0.270000000000D+02
    0.396018000000D+06 0.400000000000D+01 0.000000000000D+00 0.000000000000D+00
22 16  1 21 16  0  0.0 0.408496707678D-03-0.488853402203D-11 0.000000000000D+00
    0.330000000000D+02 0.101875000000D+02 0.590667460813D-08 0.231210965429D+01
    0.450760126114D-06 0.757098372560D-02 0.509060919285D-05 0.515509214592D+04
    0.403200000000D+06 0.279396772385D-07 0.110810981052D+01-0.156462192535D-06
    0.922530582713D+00 0.262343750000D+03-0.202677328633D+01-0.854928468345D-08
    0.215723271454D-09 0.100000000000D+01 0.188000000000D+04 0.000000000000D+00
    0.200000000000D+01 0.000000000000D+00-0.176951289177D-07 0.330000000000D+02
    0.399798000000D+06 0.400000000000D+01 0.000000000000D+00 0.000000000000D+00
25 16  1 21 16  0  0.0-0.103333964944D-03-0.648014975013D-11 0.000000000000D+00
    0.250000000000D+02 0.363125000000D+02 0.423267630796D-08-0.213154923613D+01
    0.191666185856D-05 0.499335955828D-02 0.136345624924D-05 0.515356833458D+04
    0.403200000000D+06 0.149011611938D-07-0.200510268583D+01-0.447034835815D-07
    0.978462338415D+00 0.363062500000D+03 0.692707450069D+00-0.817998358629D-08
    0.153934983438D-09 0.000000000000D+00 0.188000000000D+04 0.000000000000D+00
    0.200000000000D+01 0.000000000000D+00 0.558793544769D-08 0.250000000000D+02
    0.396060000000D+06 0.400000000000D+01 0.000000000000D+00 0.000000000000D+00
26 16  1 21 16  0  0.0-0.220874324441D-03-0.164845914696D-10 0.000000000000D+00
    0.740000000000D+02 0.380625000000D+02 0.474555481426D-08-0.258427102300D+01
    0.206753611565D-05 0.738310161978D-03 0.112131237984D-05 0.515369582367D+04
    0.403200000000D+06 0.521540641785D-07-0.201185517629D+01-0.298023223877D-07
    0.960497752678D+00 0.359781250000D+03-0.216647867133D+00-0.850535428215D-08
    0.146077513286D-09 0.100000000000D+01 0.188000000000D+04 0.000000000000D+00
    0.200000000000D+01 0.000000000000D+00 0.698491930962D-08 0.740000000000D+02
    0.396018000000D+06 0.400000000000D+01 0.000000000000D+00 0.000000000000D+00
27 16  1 21 16  0  0.0 0.554607249796D-04 0.352429196937D-11 0.000000000000D+00
    0.210000000000D+02-0.131812500000D+03 0.422017578726D-08 0.172578019854D+01
   -0.690482556820D-05 0.307148008142D-02 0.654347240925D-05 0.515363802528D+04
    0.403200000000D+06 0.242143869400D-07-0.962341793101D+00 0.745058059692D-07
    0.969947505658D+00 0.256375000000D+03 0.211344325351D+00-0.809069415274D-08
   -0.238581366443D-09 0.100000000000D+01 0.188000000000D+04 0.000000000000D+00
    0.200000000000D+01 0.000000000000D+00 0.139698386192D-08 0.210000000000D+02
    0.396318000000D+06 0.400000000000D+01 0.000000000000D+00 0.000000000000D+00
28 16  1 21 16  0  0.0 0.496898777783D-03 0.250111042988D-11 0.000000000000D+00
    0.470000000000D+02 0.345000000000D+02 0.395730769489D-08 0.244851123631D+01
    0.155344605446D-05 0.200324973557D-01 0.199303030968D-06 0.515362442207D+04
    0.403200000000D+06 0.182539224625D-06-0.193181833130D+01-0.763684511185D-07
    0.989289787182D+00 0.386718750000D+03-0.162853272507D+01-0.788675708652D-08
    0.264296723305D-10 0.000000000000D+00 0.188000000000D+04 0.000000000000D+00
    0.200000000000D+01 0.000000000000D+00-0.107102096081D-07 0.470000000000D+02
    0.396000000000D+06 0.400000000000D+01 0.000000000000D+00 0.000000000000D+00
29 16  1 21 16  0  0.0 0.652331858873D-03 0.102318153950D-11 0.000000000000D+00
    0.460000000000D+02-0.117562500000D+03 0.398766610230D-08-0.200117384378D+01
   -0.609271228313D-05 0.100512371864D-02 0.686943531036D-05 0.515363304710D+04
    0.403200000000D+06-0.279396772385D-07-0.903563666951D+00 0.223517417908D-07
    0.975979871765D+00 0.255593750000D+03-0.585872672748D+00-0.791854412486D-08
   -0.140005831805D-09 0.100000000000D+01 0.188000000000D+04 0.000000000000D+00
    0.200000000000D+01 0.000000000000D+00-0.102445483208D-07 0.460000000000D+02
    0.396018000000D+06 0.400000000000D+01 0.000000000000D+00 0.000000000000D+00
30 16  1 21 16  0  0.0 0.870795920491D-04 0.466116034659D-11 0.000000000000D+00
    0.570000000000D+02 0.136031250000D+03 0.434196657462D-08-0.110975492920D+01
    0.693835318088D-05 0.166400277521D-02 0.967457890511D-05 0.515365543365D+04
    0.403200000000D+06 0.000000000000D+00-0.298298938500D+01-0.949949026108D-07
    0.953940901182D+00 0.189406250000D+03 0.306509684716D+01-0.798426114795D-08
    0.539308178636D-10 0.000000000000D+00 0.188000000000D+04 0.000000000000D+00
    0.200000000000D+01 0.000000000000D+00 0.325962901115D-08 0.570000000000D+02
    0.396000000000D+06 0.400000000000D+01 0.000000000000D+00 0.000000000000D+00
32 16  1 21 16  0  0.0 0.885426998138D-04 0.129602995003D-10 0.000000000000D+00
    0.690000000000D+02 0.468750000000D+01 0.549201447873D-08-0.738213607434D+00
    0.316649675369D-06 0.113426236203D-01 0.496394932270D-05 0.515361684227D+04
    0.403200000000D+06 0.229105353355D-06 0.121471861089D+01-0.502914190292D-07
    0.946428604722D+00 0.276468750000D+03 0.213747649596D+00-0.850035407387D-08
    0.155006456641D-09 0.000000000000D+00 0.188000000000D+04 0.000000000000D+00
    0.200000000000D+01 0.000000000000D+00-0.372529029846D-08 0.690000000000D+02
    0.396000000000D+06 0.400000000000D+01 0.000000000000D+00 0.000000000000D+00
